{
    "links": {
        "self": "http://www.neowsapp.com/rest/v1/neo/3791300?api_key=iIulBulltgU6a56xZRHN4H3l9WmuAYTsLGpBGhQ2"
    },
    "id": "3791300",
    "neo_reference_id": "3791300",
    "name": "(2017 XX2)",
    "designation": "2017 XX2",
    "nasa_jpl_url": "http://ssd.jpl.nasa.gov/sbdb.cgi?sstr=3791300",
    "absolute_magnitude_h": 24.4,
    "estimated_diameter": {
        "kilometers": {
            "estimated_diameter_min": 0.0350392641,
            "estimated_diameter_max": 0.0783501764
        },
        "meters": {
            "estimated_diameter_min": 35.0392641108,
            "estimated_diameter_max": 78.3501764334
        },
        "miles": {
            "estimated_diameter_min": 0.0217723826,
            "estimated_diameter_max": 0.0486845275
        },
        "feet": {
            "estimated_diameter_min": 114.9582192654,
            "estimated_diameter_max": 257.0543928497
        }
    },
    "is_potentially_hazardous_asteroid": false,
    "close_approach_data": [
        {
            "close_approach_date": "2017-12-22",
            "close_approach_date_full": "2017-Dec-22 13:36",
            "epoch_date_close_approach": 1513949760000,
            "relative_velocity": {
                "kilometers_per_second": "15.2098340659",
                "kilometers_per_hour": "54755.4026373854",
                "miles_per_hour": "34022.8778221021"
            },
            "miss_distance": {
                "astronomical": "0.0710076602",
                "lunar": "27.6219798178",
                "kilometers": "10622594.719603774",
                "miles": "6600574.2860651212"
            },
            "orbiting_body": "Earth"
        }
    ],
    "orbital_data": {
        "orbit_id": "3",
        "orbit_determination_date": "2017-12-21 06:28:33",
        "first_observation_date": "2017-12-12",
        "last_observation_date": "2017-12-21",
        "data_arc_in_days": 9,
        "observations_used": 33,
        "orbit_uncertainty": "8",
        "minimum_orbit_intersection": ".0185346",
        "jupiter_tisserand_invariant": "4.210",
        "epoch_osculation": "2458101.5",
        "eccentricity": ".5791911680799204",
        "semi_major_axis": "1.566673331110891",
        "inclination": "6.854002252078938",
        "ascending_node_longitude": "70.3825903634858",
        "orbital_period": "716.252420872374",
        "perihelion_distance": ".659269974465114",
        "perihelion_argument": "101.389308616178",
        "aphelion_distance": "2.474076687756668",
        "perihelion_time": "2458159.392315462201",
        "mean_anomaly": "330.902390052646",
        "mean_motion": ".5026161022416242",
        "equinox": "J2000",
        "orbit_class": {
            "orbit_class_type": "APO",
            "orbit_class_description": "Near-Earth asteroid orbits which cross the Earth’s orbit similar to that of 1862 Apollo",
            "orbit_class_range": "a (semi-major axis) > 1.0 AU; q (perihelion) < 1.017 AU"
        }
    },
    "is_sentry_object": false
}